PHISAT 2                
1 60470U 24149C   26068.78834181  .00008925  00000+0  31421-3 0  9996
2 60470  97.3806 148.6498 0001175 168.6230 191.5037 15.29548631 86792
STARLINK-32944          
1 63022U 25032T   26068.15618337  .00037562  00000+0  13665-2 0  9996
2 63022  43.0004 339.4817 0002541 249.7055 110.3524 15.27603756 60537
